[{"OBJECT_NAME":"STARLINK-36106","OBJECT_ID":"2025-293R","EPOCH":"2026-03-09T12:10:20.378784","MEAN_MOTION":14.98345506,"ECCENTRICITY":0.00032636,"INCLINATION":70.0003,"RA_OF_ASC_NODE":94.7881,"ARG_OF_PERICENTER":267.91,"MEAN_ANOMALY":92.1685,"EPHEMERIS_TYPE":0,"CLASSIFICATION_TYPE":"U","NORAD_CAT_ID":67018,"ELEMENT_SET_NO":999,"REV_AT_EPOCH":1486,"BSTAR":0.00032957654,"MEAN_MOTION_DOT":3.843e-5,"MEAN_MOTION_DDOT":0},{"OBJECT_NAME":"PSLV DEB","OBJECT_ID":"2001-049PF","EPOCH":"2026-02-25T09:35:51.227808","MEAN_MOTION":15.03011877,"ECCENTRICITY":0.00263657,"INCLINATION":98.0083,"RA_OF_ASC_NODE":118.9106,"ARG_OF_PERICENTER":265.6966,"MEAN_ANOMALY":94.1245,"EPHEMERIS_TYPE":0,"CLASSIFICATION_TYPE":"U","NORAD_CAT_ID":28853,"ELEMENT_SET_NO":999,"REV_AT_EPOCH":68879,"BSTAR":0.00037786861,"MEAN_MOTION_DOT":5.057e-5,"MEAN_MOTION_DDOT":0}]
